0 FENGYUN 1C DEB
1 31353U 99025BRH 13281.02896962  .00000555  00000-0  20664-3 0  4415
2 31353 098.9820 008.7900 0254561 244.3892 113.0905 14.20070710337567
0 FENGYUN 1C DEB
1 31353U 99025BRH 13283.49504428  .00000601  00000-0  22194-3 0  4424
2 31353 098.9811 011.2914 0254777 237.8602 119.7872 14.20075190337918
0 FENGYUN 1C DEB
1 31353U 99025BRH 13285.04514311  .00000630  00000-0  23213-3 0  4435
2 31353 098.9810 012.8672 0254244 233.3216 124.4506 14.20078215338139
0 FENGYUN 1C DEB
1 31353U 99025BRH 13286.03157011  .00000650  00000-0  23883-3 0  4441
2 31353 098.9809 013.8733 0254234 230.1246 127.7489 14.20080129338271
0 FENGYUN 1C DEB
1 31353U 99025BRH 13287.01799682  .00000684  00000-0  25006-3 0  4453
2 31353 098.9814 014.8796 0254669 226.9533 131.0420 14.20082609338415
0 FENGYUN 1C DEB
1 31353U 99025BRH 13288.07487853  .00000696  00000-0  25354-3 0  4464
2 31353 098.9881 015.9553 0255500 223.5584 134.5333 14.20084331338567
0 FENGYUN 1C DEB
1 31353U 99025BRH 13290.04773056  .00000750  00000-0  27156-3 0  4471
2 31353 098.9900 017.9583 0255658 217.9349 140.3849 14.20089037338840
0 FENGYUN 1C DEB
1 31353U 99025BRH 13291.03415311  .00000814  00000-0  29365-3 0  4484
2 31353 098.9916 018.9615 0254958 215.1818 143.2584 14.20092444338986
0 FENGYUN 1C DEB
1 31353U 99025BRH 13293.07745578  .00000949  00000-0  34018-3 0  4492
2 31353 098.9829 021.0330 0253584 210.1914 148.5383 14.20100812339271
0 FENGYUN 1C DEB
1 31353U 99025BRH 13294.06385904  .00000995  00000-0  35498-3 0  4501
2 31353 098.9814 022.0385 0254623 207.0086 151.7865 14.20103874339414
